STARLINK-3146
1 19414C 21104G   21326.14897053 -.00825327  00000-0 -31169-2 0  3266
2 19414  53.2176  90.8334 0024630  64.9367 236.1613 15.87303314    13
